NORAD_CAT_ID,OBJECT_NAME,OBJECT_TYPE,EPOCH,MEAN_MOTION,ECCENTRICITY,INCLINATION,RA_OF_ASC_NODE,ARG_OF_PERICENTER,MEAN_ANOMALY,BSTAR,MEAN_MOTION_DOT,MEAN_MOTION_DDOT,TLE_LINE0,TLE_LINE1,TLE_LINE2,SEMIMAJOR_AXIS,PERIOD,APOGEE,PERIGEE,DECAYED
53389.0,STARLINK-4523,PAYLOAD,2024-08-06 15:38:32,15.08832875,0.0001705,53.218,208.0139,100.1168,260.0016,-1.8312e-05,-5.79e-06,0.0,0 STARLINK-4523,1 53389U 22097B   24219.65176509 -.00000579  00000-0 -18312-4 0  9997,2 53389  53.2180 208.0139 0001705 100.1168 260.0016 15.08832875110455,6917.902,95.438,540.947,538.588,0.0
53389.0,STARLINK-4523,PAYLOAD,2024-08-07 04:21:36,15.08844297,0.0001563,53.2163,205.6345,99.6188,260.4981,-1.1484e-05,-4.71e-06,0.0,0 STARLINK-4523,1 53389U 22097B   24220.18167706 -.00000471  00000-0 -11484-4 0  9990,2 53389  53.2163 205.6345 0001563  99.6188 260.4981 15.08844297110539,6917.867,95.437,540.814,538.651,0.0
53389.0,STARLINK-4523,PAYLOAD,2024-08-08 08:58:33,15.08844087,0.0001313,53.215,200.2819,94.5795,265.5347,0.00017977,2.575e-05,0.0,0 STARLINK-4523,1 53389U 22097B   24221.37399422  .00002575  00000-0  17977-3 0  9991,2 53389  53.2150 200.2819 0001313  94.5795 265.5347 15.08844087111364,6917.868,95.437,540.641,538.825,0.0
53389.0,STARLINK-4523,PAYLOAD,2024-08-09 05:38:35,15.08835462,0.0001524,53.2162,196.4197,109.4806,250.6351,5.3422e-06,-2.03e-06,0.0,0 STARLINK-4523,1 53389U 22097B   24222.23512756 -.00000203  00000-0  53422-5 0  9998,2 53389  53.2162 196.4197 0001524 109.4806 250.6351 15.08835462110844,6917.894,95.438,540.814,538.705,0.0
53389.0,STARLINK-4523,PAYLOAD,2024-08-09 08:49:20,15.08840631,0.0001437,53.2159,195.8216,102.3513,257.764,5.2415e-05,5.46e-06,0.0,0 STARLINK-4523,1 53389U 22097B   24222.36760331  .00000546  00000-0  52415-4 0  9995,2 53389  53.2159 195.8216 0001437 102.3513 257.7640 15.08840631111513,6917.878,95.438,540.738,538.749,0.0
53389.0,STARLINK-4523,PAYLOAD,2024-08-09 15:10:53,15.08835753,0.0001262,53.2149,194.631,91.8695,268.2441,1.7536e-05,-9e-08,0.0,0 STARLINK-4523,1 53389U 22097B   24222.63256832 -.00000009  00000-0  17536-4 0  9991,2 53389  53.2149 194.6310 0001262  91.8695 268.2441 15.08835753111552,6917.893,95.438,540.631,538.885,0.0
53389.0,STARLINK-4523,PAYLOAD,2024-08-10 03:53:58,15.08843772,0.0001373,53.2156,192.251,91.7096,268.4054,3.79e-05,3.15e-06,0.0,0 STARLINK-4523,1 53389U 22097B   24223.16248269  .00000315  00000-0  37900-4 0  9991,2 53389  53.2156 192.2510 0001373  91.7096 268.4054 15.08843772110981,6917.869,95.437,540.684,538.784,0.0
53389.0,STARLINK-4523,PAYLOAD,2024-08-11 06:55:30,15.08860897,0.0001389,53.216,187.197,91.299,268.8161,0.00023974,3.532e-05,0.0,0 STARLINK-4523,1 53389U 22097B   24224.28854833  .00003532  00000-0  23974-3 0  9994,2 53389  53.2160 187.1970 0001389  91.2990 268.8161 15.08860897111154,6917.817,95.436,540.642,538.721,0.0
53389.0,STARLINK-4523,PAYLOAD,2024-08-11 14:52:27,15.0884195,0.0001206,53.2145,185.7095,108.8327,251.2796,9.6932e-05,1.255e-05,0.0,0 STARLINK-4523,1 53389U 22097B   24224.61975953  .00001255  00000-0  96932-4 0  9993,2 53389  53.2145 185.7095 0001206 108.8327 251.2796 15.08841950111201,6917.874,95.437,540.574,538.905,0.0
53389.0,STARLINK-4523,PAYLOAD,2024-08-12 14:43:14,15.08843085,0.000157,53.2157,181.2453,116.2661,243.8493,-9.6766e-06,-4.42e-06,0.0,0 STARLINK-4523,1 53389U 22097B   24225.61335854 -.00000442  00000-0 -96766-5 0  9999,2 53389  53.2157 181.2453 0001570 116.2661 243.8493 15.08843085112002,6917.871,95.437,540.822,538.65,0.0
53389.0,STARLINK-4523,PAYLOAD,2024-08-12 21:04:47,15.08835831,0.0001759,53.2156,180.0547,125.3201,234.7955,0.00044655,6.825e-05,0.0,0 STARLINK-4523,1 53389U 22097B   24225.87832183  .00006825  00000-0  44655-3 0  9991,2 53389  53.2156 180.0547 0001759 125.3201 234.7955 15.08835831111395,6917.893,95.438,540.975,538.541,0.0
53389.0,STARLINK-4523,PAYLOAD,2024-08-13 03:26:20,15.08800099,0.0001424,53.2155,178.8706,108.8653,251.2494,-0.00092434,-0.00014953,0.0,0 STARLINK-4523,1 53389U 22097B   24226.14329020 -.00014953  00000-0 -92434-3 0  9994,2 53389  53.2155 178.8706 0001424 108.8653 251.2494 15.08800099111437,6918.002,95.44,540.852,538.882,0.0
53389.0,STARLINK-4523,PAYLOAD,2024-08-13 06:37:07,15.08798675,0.0001485,53.2155,178.276,106.16,253.9555,-0.00080619,-0.00013081,0.0,0 STARLINK-4523,1 53389U 22097B   24226.27577623 -.00013081  00000-0 -80619-3 0  9995,2 53389  53.2155 178.2760 0001485 106.1600 253.9555 15.08798675112109,6918.007,95.44,540.899,538.844,0.0
53389.0,STARLINK-4523,PAYLOAD,2024-08-14 03:17:09,15.08805609,0.000153,53.2152,174.4124,89.2636,270.8531,0.00011817,1.592e-05,0.0,0 STARLINK-4523,1 53389U 22097B   24227.13691565  .00001592  00000-0  11817-3 0  9999,2 53389  53.2152 174.4124 0001530  89.2636 270.8531 15.08805609111588,6917.986,95.44,540.909,538.792,0.0
53389.0,STARLINK-4523,PAYLOAD,2024-08-14 06:27:56,15.0881131,0.0001538,53.2152,173.817,80.9347,279.1819,0.00095984,0.00015009,0.0,0 STARLINK-4523,1 53389U 22097B   24227.26939980  .00015009  00000-0  95984-3 0  9994,2 53389  53.2152 173.8170 0001538  80.9347 279.1819 15.08811310112259,6917.968,95.439,540.897,538.769,0.0
53389.0,STARLINK-4523,PAYLOAD,2024-08-15 01:32:33,15.08869148,0.0001459,53.2149,170.2497,80.696,279.4197,0.0015201,0.00024007,0.0,0 STARLINK-4523,1 53389U 22097B   24228.06427419  .00024007  00000-0  15201-2 0  9993,2 53389  53.2149 170.2497 0001459  80.6960 279.4197 15.08869148111723,6917.791,95.436,540.666,538.647,0.0
53389.0,STARLINK-4523,PAYLOAD,2024-08-15 12:40:14,15.08875469,0.0001411,53.2146,168.1707,82.5561,277.5591,0.0010094,0.00015829,0.0,0 STARLINK-4523,1 53389U 22097B   24228.52794583  .00015829  00000-0  10094-2 0  9990,2 53389  53.2146 168.1707 0001411  82.5561 277.5591 15.08875469112446,6917.772,95.435,540.613,538.661,0.0
53389.0,STARLINK-4523,PAYLOAD,2024-08-16 02:58:41,15.0887321,0.0001573,53.2152,165.4947,105.6077,254.5089,0.00038965,5.924e-05,0.0,0 STARLINK-4523,1 53389U 22097B   24229.12409378  .00005924  00000-0  38965-3 0  9995,2 53389  53.2152 165.4947 0001573 105.6077 254.5089 15.08873210111883,6917.779,95.435,540.732,538.556,0.0
53389.0,STARLINK-4523,PAYLOAD,2024-08-16 18:52:32,15.08865983,0.0001187,53.2139,162.5193,90.8985,269.2143,0.00023468,3.452e-05,0.0,0 STARLINK-4523,1 53389U 22097B   24229.78648664  .00003452  00000-0  23468-3 0  9996,2 53389  53.2139 162.5193 0001187  90.8985 269.2143 15.08865983111986,6917.801,95.436,540.487,538.845,0.0
53389.0,STARLINK-4523,PAYLOAD,2024-08-17 02:49:28,15.08854343,0.0001425,53.2152,161.0297,79.9648,280.1505,-6.1874e-05,-1.273e-05,0.0,0 STARLINK-4523,1 53389U 22097B   24230.11768817 -.00001273  00000-0 -61874-4 0  9993,2 53389  53.2152 161.0297 0001425  79.9648 280.1505 15.08854343112038,6917.837,95.437,540.687,538.716,0.0
53389.0,STARLINK-4523,PAYLOAD,2024-08-18 02:40:15,15.08845755,0.000146,53.2153,156.5699,75.2281,284.8873,6.3603e-06,-1.87e-06,0.0,0 STARLINK-4523,1 53389U 22097B   24231.11129007 -.00000187  00000-0  63603-5 0  9991,2 53389  53.2153 156.5699 0001460  75.2281 284.8873 15.08845755112187,6917.863,95.437,540.738,538.718,0.0
53389.0,STARLINK-4523,PAYLOAD,2024-08-18 18:34:07,15.08844346,0.0001536,53.2157,153.598,72.1732,287.9427,0.00023307,3.424e-05,0.0,0 STARLINK-4523,1 53389U 22097B   24231.77369292  .00003424  00000-0  23307-3 0  9996,2 53389  53.2157 153.5980 0001536  72.1732 287.9427 15.08844346112939,6917.867,95.437,540.795,538.67,0.0
53389.0,STARLINK-4523,PAYLOAD,2024-08-19 04:06:25,15.08861738,0.0001434,53.2156,151.8131,81.9796,278.1358,0.00066737,0.00010355,0.0,0 STARLINK-4523,1 53389U 22097B   24232.17112640  .00010355  00000-0  66737-3 0  9999,2 53389  53.2156 151.8131 0001434  81.9796 278.1358 15.08861738112346,6917.814,95.436,540.671,538.687,0.0
53389.0,STARLINK-4523,PAYLOAD,2024-08-19 12:03:21,15.0884327,0.0001587,53.2168,150.3249,78.4357,281.6813,6.6677e-05,7.73e-06,0.0,0 STARLINK-4523,1 53389U 22097B   24232.50233083  .00000773  00000-0  66677-4 0  9998,2 53389  53.2168 150.3249 0001587  78.4357 281.6813 15.08843270112397,6917.87,95.437,540.833,538.638,0.0
53389.0,STARLINK-4523,PAYLOAD,2024-08-20 03:57:13,15.08838648,0.0001827,53.2166,147.3501,91.0242,269.096,8.352e-05,1.041e-05,0.0,0 STARLINK-4523,1 53389U 22097B   24233.16473559  .00001041  00000-0  83520-4 0  9990,2 53389  53.2166 147.3501 0001827  91.0242 269.0960 15.08838648112490,6917.885,95.438,541.013,538.486,0.0
53389.0,STARLINK-4523,PAYLOAD,2024-08-21 03:47:59,15.08858157,0.000191,53.2161,142.8892,97.7772,262.3437,0.00075388,0.00011736,0.0,0 STARLINK-4523,1 53389U 22097B   24234.15833148  .00011736  00000-0  75388-3 0  9998,2 53389  53.2161 142.8892 0001910  97.7772 262.3437 15.08858157112641,6917.825,95.436,541.011,538.369,0.0
53389.0,STARLINK-4523,PAYLOAD,2024-08-21 22:52:38,15.08840906,0.0001682,53.216,139.3215,95.1375,264.9809,0.00019853,2.873e-05,0.0,0 STARLINK-4523,1 53389U 22097B   24234.95321762  .00002873  00000-0  19853-3 0  9997,2 53389  53.2160 139.3215 0001682  95.1375 264.9809 15.08840906112764,6917.878,95.437,540.906,538.579,0.0
